0 SL-16 DEB
1 23707U 95058D   13284.19740862  .00000034  00000-0  73184-4 0  5586
2 23707 070.9994 193.6450 0205638 193.4139 320.4640 13.71556790898324
0 SL-16 DEB
1 23707U 95058D   13286.51145414  .00000070  00000-0  10798-3 0  5598
2 23707 070.9992 189.1227 0205517 190.1401 226.3093 13.71556839898641
0 SL-16 DEB
1 23707U 95058D   13289.15857332  .00000095  00000-0  13137-3 0  5609
2 23707 070.9986 183.9495 0205381 186.3947 336.7421 13.71557486899005
0 SL-16 DEB
1 23707U 95058D   13291.18953380  .00000075  00000-0  11226-3 0  5611
2 23707 070.9982 179.9803 0205273 183.5270 284.8234 13.71558186899280
0 SL-16 DEB
1 23707U 95058D   13293.37824227  .00000062  00000-0  10001-3 0  5628
2 23707 070.9979 175.7027 0205147 180.4238 291.8199 13.71558872899581
0 SL-16 DEB
1 23707U 95058D   13296.08491322  .00000077  00000-0  11436-3 0  5635
2 23707 070.9977 170.4127 0205010 176.5946 336.3155 13.71559491899959
